ONEWEB-0208             
1 48243U 21031AK  26004.43060980 -.00000109  00000+0 -32796-3 0  9991
2 48243  87.9015 322.3334 0001429  78.1191 282.0099 13.14502969226792
ONEWEB-0200             
1 48244U 21031AL  26004.39413757  .00000309  00000+0  80021-3 0  9995
2 48244  87.9012 322.3298 0001591  83.6816 276.4495 13.14504096226716
ONEWEB-0217             
1 48245U 21031AM  26004.40998754  .00000288  00000+0  74316-3 0  9999
2 48245  87.9022 322.3235 0001389  77.2683 282.8602 13.14502995226666
ONEWEB-0211             
1 48767U 21045A   26004.28880017  .00000104  00000+0  24005-3 0  9998
2 48767  87.9014 291.8247 0001349  63.4805 296.6464 13.16138098222888
ONEWEB-0223             
1 48768U 21045B   26004.28972539  .00000032  00000+0  50215-4 0  9993
2 48768  87.9011 291.8927 0001565  57.6355 302.4926 13.15548726222854
ONEWEB-0230             
1 48769U 21045C   26004.33726153  .00000507  00000+0  13140-2 0  9990
2 48769  87.9005 291.9113 0001905  75.7504 284.3837 13.15545499223125
ONEWEB-0237             
1 48770U 21045D   26004.32617095  .00000142  00000+0  34230-3 0  9994
2 48770  87.9004 291.9141 0001730  62.7774 297.3532 13.15548842222847
ONEWEB-0235             
1 48771U 21045E   26004.30081744  .00000006  00000+0 -17673-4 0  9992
2 48771  87.9012 291.8913 0001612  57.5155 302.6131 13.15548530222835
ONEWEB-0242             
1 48772U 21045F   26004.52265263  .00000070  00000+0  15177-3 0  9993
2 48772  87.9017 291.8413 0001806  69.7674 290.3650 13.15547997222905
ONEWEB-0241             
1 48773U 21045G   26004.28180978 -.00000004  00000+0 -45083-4 0  9995
2 48773  87.9008 291.9244 0001385  62.4332 297.6939 13.15547645222788
ONEWEB-0243             
1 48774U 21045H   26004.31351107  .00000179  00000+0  44019-3 0  9992
2 48774  87.9010 291.9285 0001796  60.9309 299.2001 13.15552397222812
ONEWEB-0222             
1 48775U 21045J   26004.29684939  .00000049  00000+0  94876-4 0  9995
2 48775  87.9016 291.8867 0001583  67.8101 292.3197 13.15550399222858
ONEWEB-0244             
1 48776U 21045K   26004.32299968  .00000135  00000+0  32436-3 0  9993
2 48776  87.9020 291.8700 0001696  68.3383 291.7928 13.15548229223421
ONEWEB-0247             
1 48777U 21045L   26004.31982220  .00000109  00000+0  25508-3 0  9996
2 48777  87.9002 291.9238 0002101  46.9411 313.1895 13.15552867222867
ONEWEB-0245             
1 48778U 21045M   26004.31508336  .00000291  00000+0  74008-3 0  9990
2 48778  87.9008 291.8899 0001388  70.9023 289.2257 13.15548799222839
ONEWEB-0229             
1 48779U 21045N   26004.31032914  .00000113  00000+0  26570-3 0  9999
2 48779  87.9008 291.8887 0001733  70.4789 289.6529 13.15548772222865
ONEWEB-0228             
1 48780U 21045P   26004.34373730  .00000003  00000+0 -26656-4 0  9993
2 48780  87.9016 291.8680 0001642  68.8817 291.2488 13.15549889222783
ONEWEB-0232             
1 48781U 21045Q   26004.31824865  .00000126  00000+0  30000-3 0  9993
2 48781  87.9023 291.8675 0001646  70.7841 289.3467 13.15550248223102
ONEWEB-0231             
1 48782U 21045R   26004.29605032  .00000013  00000+0 -50374-6 0  9999
2 48782  87.9007 291.9100 0001705  66.3253 293.8056 13.15548091222794
ONEWEB-0234             
1 48783U 21045S   26004.33394673  .00000142  00000+0  34410-3 0  9993
2 48783  87.9013 291.8777 0001130 102.9309 257.1948 13.15550253222934
ONEWEB-0238             
1 48784U 21045T   26004.33423510  .00000198  00000+0  49078-3 0  9994
2 48784  87.9012 291.8704 0001316  85.9090 274.2190 13.15549544222836
ONEWEB-0240             
1 48785U 21045U   26004.27942119 -.00000007  00000+0 -53426-4 0  9993
2 48785  87.9019 291.8788 0001427  65.5339 294.5940 13.15547361222854
ONEWEB-0246             
1 48786U 21045V   26004.34993257 -.00000126  00000+0 -36935-3 0  9998
2 48786  87.9020 291.8744 0001773  70.4044 289.7278 13.15548000222739
ONEWEB-0210             
1 48787U 21045W   26004.32458432  .00000173  00000+0  42580-3 0  9991
2 48787  87.9014 291.8778 0002033  56.2812 303.8512 13.15548226222778
ONEWEB-0214             
1 48788U 21045X   26004.33329939  .00000121  00000+0  28634-3 0  9999
2 48788  87.9023 291.8694 0002008  66.0969 294.0372 13.15549674222740
ONEWEB-0221             
1 48789U 21045Y   26004.34043132  .00000035  00000+0  59358-4 0  9991
2 48789  87.9016 291.8807 0001589  65.4773 294.6523 13.15548948222835
ONEWEB-0213             
1 48790U 21045Z   26004.32933851  .00000086  00000+0  19539-3 0  9999
2 48790  87.9006 291.8889 0001760  63.3586 296.7724 13.15547687222897
ONEWEB-0212             
1 48791U 21045AA  26004.30636956  .00000123  00000+0  29179-3 0  9997
2 48791  87.9014 291.8857 0001600  75.1702 284.9605 13.15549242222881
ONEWEB-0227             
1 48792U 21045AB  26004.30557459  .00000064  00000+0  13554-3 0  9992
2 48792  87.9004 291.8939 0001562  71.9041 288.2259 13.15548271222837
ONEWEB-0226             
1 48793U 21045AC  26004.22317269  .00000161  00000+0  39440-3 0  9997
2 48793  87.9007 291.9198 0001814  64.4317 295.7001 13.15549729222794
ONEWEB-0224             
1 48794U 21045AD  26004.33884146  .00000063  00000+0  13258-3 0  9993
2 48794  87.9008 291.9318 0000772  58.6508 301.4698 13.15549863222739
ONEWEB-0233             
1 48795U 21045AE  26004.34345682 -.00000032  00000+0 -11911-3 0  9994
2 48795  87.9006 291.9411 0001533  63.0619 297.0667 13.15548031222755
ONEWEB-0190             
1 48796U 21045AF  26004.33090443  .00000134  00000+0  32073-3 0  9999
2 48796  87.9004 291.9052 0001778  46.9448 313.1831 13.15551720222826
ONEWEB-0236             
1 48797U 21045AG  26004.34834727 -.00000011  00000+0 -62897-4 0  9996
2 48797  87.9006 291.9126 0001581  76.7803 283.3504 13.15548668222719
ONEWEB-0248             
1 48798U 21045AH  26004.36103460 -.00000038  00000+0 -13536-3 0  9996
2 48798  87.9018 291.8768 0001300  56.2695 303.8559 13.15548186222875
ONEWEB-0225             
1 48799U 21045AJ  26004.30715903  .00000151  00000+0  36652-3 0  9990
2 48799  87.9007 291.9094 0001668  51.6023 308.5257 13.15547795222870
ONEWEB-0215             
1 48800U 21045AK  26004.35310041 -.00000081  00000+0 -24880-3 0  9996
2 48800  87.9022 291.8642 0001532  49.7745 310.3519 13.15547677222755
ONEWEB-0216             
1 48801U 21045AL  26004.51472743 -.00000120  00000+0 -35237-3 0  9995
2 48801  87.9009 291.8600 0001856  72.2762 287.8571 13.15548537222789
ONEWEB-0239             
1 48802U 21045AM  26004.29130979  .00000132  00000+0  31624-3 0  9990
2 48802  87.9004 291.9189 0001226  46.1978 313.9254 13.15548313222790
ONEWEB-0249             
1 48967U 21060A   26004.20265453  .00000065  00000+0  13620-3 0  9997
2 48967  87.9042 261.4299 0001469  71.2148 288.9142 13.16593427218031
ONEWEB-0250             
1 48968U 21060B   26004.39091182  .00000204  00000+0  43640-3 0  9994
2 48968  87.9036 259.6838 0000574 104.5468 255.5732 13.25823122218510
ONEWEB-0252             
1 48970U 21060D   26004.23431084  .00000178  00000+0  43095-3 0  9993
2 48970  87.9041 261.4169 0001709  70.9843 289.1473 13.16596211218084
ONEWEB-0253             
1 48971U 21060E   26004.22324324  .00000159  00000+0  38289-3 0  9999
2 48971  87.9041 261.4240 0001468  67.2724 292.8562 13.16593785218010
ONEWEB-0254             
1 48972U 21060F   26004.23273712  .00000093  00000+0  20843-3 0  9999
2 48972  87.9048 261.4147 0001290  62.1738 297.9523 13.16595518218015
ONEWEB-0255             
1 48973U 21060G   26004.27074098 -.00000041  00000+0 -14104-3 0  9998
2 48973  87.9035 261.4208 0001406  66.1884 293.9394 13.16594499218092
ONEWEB-0256             
1 48974U 21060H   26004.22084476  .00000177  00000+0  42828-3 0  9997
2 48974  87.9033 261.4381 0001594  75.9287 284.2021 13.16597220218057
ONEWEB-0257             
1 48975U 21060J   26004.25331669  .00000059  00000+0  11946-3 0  9996
2 48975  87.9044 261.4123 0001539  68.2537 291.8758 13.16593990218013
ONEWEB-0258             
1 48976U 21060K   26004.25490179 -.00000033  00000+0 -12045-3 0  9994
2 48976  87.9039 261.4258 0001429  77.3284 282.8007 13.16594180218025
ONEWEB-0259             
1 48977U 21060L   26004.17256970  .00000184  00000+0  44680-3 0  9990
2 48977  87.9045 261.4380 0001367  69.1584 290.9694 13.16594669218048
ONEWEB-0260             
1 48978U 21060M   26004.23985086  .00000089  00000+0  19793-3 0  9996
2 48978  87.9031 261.4359 0001902  73.9007 286.2334 13.16597311218033
ONEWEB-0261             
1 48979U 21060N   26004.20977504  .00000122  00000+0  28645-3 0  9994
2 48979  87.9031 261.4438 0001566  59.7149 300.4137 13.16595665218082
ONEWEB-0262             
1 48980U 21060P   26004.26598267 -.00000043  00000+0 -14609-3 0  9996
2 48980  87.9042 261.4085 0001224  70.5998 289.5265 13.16593683218052
ONEWEB-0263             
1 48981U 21060Q   26004.22165251  .00000151  00000+0  36196-3 0  9999
2 48981  87.9038 261.4303 0001468  59.2753 300.8522 13.16593813218018
ONEWEB-0264             
1 48982U 21060R   26004.25886028 -.00000043  00000+0 -14649-3 0  9996
2 48982  87.9039 261.4262 0001722  68.2541 291.8773 13.16595335218021
ONEWEB-0266             
1 48984U 21060T   26004.20423472  .00000104  00000+0  23776-3 0  9990
2 48984  87.9043 261.4248 0001337  78.0970 282.0311 13.16593465218009
ONEWEB-0267             
1 48985U 21060U   26004.21532360  .00000069  00000+0  14682-3 0  9995
2 48985  87.9041 261.4209 0001560  66.3579 293.7715 13.16593611218019
ONEWEB-0268             
1 48986U 21060V   26004.25964682 -.00000008  00000+0 -54399-4 0  9991
2 48986  87.9043 261.4209 0001596  73.9985 286.1322 13.16594342218287
ONEWEB-0269             
1 48987U 21060W   26004.24065677  .00000034  00000+0  56268-4 0  9991
2 48987  87.9036 261.4447 0001696  79.9566 280.1757 13.16594963218056
ONEWEB-0270             
1 48988U 21060X   26004.25807523 -.00000042  00000+0 -14350-3 0  9993
2 48988  87.9042 261.4232 0001328  59.0126 301.1135 13.16594745218095
